OBJECT_NAME,OBJECT_ID,EPOCH,MEAN_MOTION,ECCENTRICITY,INCLINATION,RA_OF_ASC_NODE,ARG_OF_PERICENTER,MEAN_ANOMALY,EPHEMERIS_TYPE,CLASSIFICATION_TYPE,NORAD_CAT_ID,ELEMENT_SET_NO,REV_AT_EPOCH,BSTAR,MEAN_MOTION_DOT,MEAN_MOTION_DDOT
STARLINK-37706,2026-110D,2026-06-14T12:00:02.998944,15.33403961,.00016,97.2843,1.9065,80.8774,305.0960,0,U,69127,999,522,.20762E-2,.67467E-3,0
STARLINK-37723,2026-110E,2026-06-14T12:00:02.998944,15.33401969,.000144,97.2844,1.9123,85.8794,315.1079,0,U,69128,999,522,.20179E-2,.65548E-3,0
STARLINK-37720,2026-110F,2026-06-14T12:16:37.068096,15.49234569,.0001965,97.2838,1.7250,81.4592,278.6882,0,U,69129,999,518,.13295E-2,.73011E-3,0
STARLINK-37533,2026-110G,2026-06-14T12:00:02.998944,15.33398049,.0001443,97.2843,1.9331,90.0425,355.9560,0,U,69130,999,522,.21709E-2,.70565E-3,0
STARLINK-37530,2026-110H,2026-06-14T12:00:02.998944,15.33395103,.000196,97.2840,1.9407,82.7036,18.2893,0,U,69131,999,522,.22464E-2,.73038E-3,0
STARLINK-37660,2026-110J,2026-06-14T12:02:35.945088,15.49127973,.000096,97.2831,1.8913,191.1386,168.9844,0,U,69132,999,519,.83254E-3,.45353E-3,0
STARLINK-37633,2026-110K,2026-06-14T11:54:34.047360,15.49208194,.0001286,97.2828,1.8987,105.8681,254.2712,0,U,69133,999,519,.71709E-3,.3913E-3,0
STARLINK-37361,2026-110L,2026-06-14T12:00:02.998944,15.33381262,.0002043,97.2838,1.9608,85.9921,60.0116,0,U,69134,999,522,.23336E-2,.75871E-3,0
STARLINK-37372,2026-110M,2026-06-14T11:49:36.626592,15.49208918,.000129,97.2832,1.9050,87.2309,272.9090,0,U,69135,999,519,.39561E-3,.21499E-3,0
STARLINK-37531,2026-110N,2026-06-14T12:00:02.998944,15.39325943,.0002023,97.2851,1.9738,70.5620,93.9167,0,U,69136,999,522,-.68E-1,-.236116E-1,0
STARLINK-37662,2026-110P,2026-06-14T11:49:07.724928,15.49207418,.0001562,97.2830,1.9055,91.3454,268.7976,0,U,69137,999,519,.34457E-3,.18706E-3,0
STARLINK-37658,2026-110Q,2026-06-14T12:34:46.689600,15.49207730,.0001154,97.2829,1.8619,91.8620,268.2763,0,U,69138,999,519,.73887E-3,.40327E-3,0
STARLINK-37659,2026-110R,2026-06-14T12:45:51.502176,15.49203298,.0001397,97.2838,1.8521,100.8430,259.2979,0,U,69139,999,519,.87726E-3,.47936E-3,0
STARLINK-37653,2026-110S,2026-06-14T12:49:24.580128,15.49198580,.0001169,97.2837,1.8489,99.3499,260.7884,0,U,69140,999,519,.64385E-3,.35094E-3,0
STARLINK-37654,2026-110T,2026-06-14T11:46:42.465792,15.49191290,.0001601,97.2829,1.9078,89.5800,270.5635,0,U,69141,999,519,.87222E-3,.47639E-3,0
STARLINK-37655,2026-110U,2026-06-14T12:00:02.998944,15.46605976,.0002217,97.2838,1.9623,90.8609,70.1172,0,U,69142,999,522,-.5956E-1,-.2611416E-1,0
STARLINK-37636,2026-110V,2026-06-14T12:00:02.998944,15.37263806,.0001744,97.2838,2.0226,87.6417,189.4393,0,U,69143,999,522,-.91893E-1,-.2958368E-1,0
STARLINK-37638,2026-110W,2026-06-14T12:00:02.998944,15.37383789,.0001554,97.2838,2.0288,84.9000,206.9910,0,U,69144,999,522,-.92608E-1,-.2988777E-1,0
STARLINK-37657,2026-110X,2026-06-14T11:47:00.480192,15.49235093,.0001854,97.2829,1.9070,95.7176,264.4287,0,U,69145,999,519,.90409E-3,.49471E-3,0
STARLINK-37639,2026-110Y,2026-06-14T12:00:02.998944,15.37883321,.0001999,97.2838,2.0412,95.1420,224.2752,0,U,69146,999,527,-.70931E-1,-.2350368E-1,0
STARLINK-37661,2026-110Z,2026-06-14T12:17:52.279296,15.49219791,.0001753,97.2835,1.8780,98.9812,261.1637,0,U,69147,999,519,.12621E-2,.69234E-3,0
STARLINK-37395,2026-111A,2026-06-14T12:00:02.998944,15.67788495,.0000674,53.1588,165.2666,87.9972,268.1218,0,U,69148,999,511,-.24527E-1,-.2410498E-1,0
STARLINK-37346,2026-111B,2026-06-14T12:00:02.998944,15.52494292,.000172,53.1597,165.6723,90.2305,65.9892,0,U,69149,999,511,-.52186E-1,-.2836325E-1,0
STARLINK-37332,2026-111C,2026-06-14T12:00:02.998944,15.49270779,.0001182,53.1582,165.9927,78.1045,280.1613,0,U,69150,999,511,.12476E-2,.69466E-3,0
STARLINK-37297,2026-111D,2026-06-14T12:00:02.998944,15.69500970,.0000914,53.1592,165.2130,74.6987,307.8840,0,U,69151,999,511,-.23993E-1,-.25165E-1,0
STARLINK-37317,2026-111E,2026-06-14T12:00:02.998944,15.73882505,.0001043,53.1588,165.1238,60.5395,5.6210,0,U,69152,999,511,-.19593E-1,-.2428348E-1,0
STARLINK-37374,2026-111F,2026-06-14T12:00:02.998944,15.49279204,.0001059,53.1589,166.1691,86.5710,184.0770,0,U,69153,999,511,.11855E-2,.65973E-3,0
STARLINK-37235,2026-111G,2026-06-14T12:00:02.998944,15.49263276,.0001093,53.1586,166.4117,81.1063,70.1596,0,U,69154,999,511,.13684E-2,.76278E-3,0
STARLINK-37329,2026-111H,2026-06-14T12:00:02.998944,15.73943561,.0001082,53.1589,165.1274,60.3727,4.0459,0,U,69155,999,511,-.2024E-1,-.2560781E-1,0
STARLINK-37345,2026-111J,2026-06-14T12:00:02.998944,15.75592490,.0001042,53.1589,165.0974,63.0410,16.1455,0,U,69156,999,511,-.18863E-1,-.2565457E-1,0
