STARLINK-37706          
1 69127U 26110D   26165.50003471  .00067467  00000+0  20762-2 0  9993
2 69127  97.2843   1.9065 0001600  80.8774 305.0960 15.33403961  5229
STARLINK-37723          
1 69128U 26110E   26165.50003471  .00065548  00000+0  20179-2 0  9994
2 69128  97.2844   1.9123 0001440  85.8794 315.1079 15.33401969  5224
STARLINK-37720          
1 69129U 26110F   26165.51154014  .00073011  00000+0  13295-2 0  9991
2 69129  97.2838   1.7250 0001965  81.4592 278.6882 15.49234569  5184
STARLINK-37533          
1 69130U 26110G   26165.50003471  .00070565  00000+0  21709-2 0  9992
2 69130  97.2843   1.9331 0001443  90.0425 355.9560 15.33398049  5220
STARLINK-37530          
1 69131U 26110H   26165.50003471  .00073038  00000+0  22464-2 0  9990
2 69131  97.2840   1.9407 0001960  82.7036  18.2893 15.33395103  5228
STARLINK-37660          
1 69132U 26110J   26165.50180492  .00045353  00000+0  83254-3 0  9994
2 69132  97.2831   1.8913 0000960 191.1386 168.9844 15.49127973  5192
STARLINK-37633          
1 69133U 26110K   26165.49622740  .00039130  00000+0  71709-3 0  9998
2 69133  97.2828   1.8987 0001286 105.8681 254.2712 15.49208194  5190
STARLINK-37361          
1 69134U 26110L   26165.50003471  .00075871  00000+0  23336-2 0  9999
2 69134  97.2838   1.9608 0002043  85.9921  60.0116 15.33381262  5226
STARLINK-37372          
1 69135U 26110M   26165.49278503  .00021499  00000+0  39561-3 0  9993
2 69135  97.2832   1.9050 0001290  87.2309 272.9090 15.49208918  5194
STARLINK-37531          
1 69136U 26110N   26165.50003471 -.02361160  00000+0 -68000-1 0  9990
2 69136  97.2851   1.9738 0002023  70.5620  93.9167 15.39325943  5222
STARLINK-37662          
1 69137U 26110P   26165.49245052  .00018706  00000+0  34457-3 0  9994
2 69137  97.2830   1.9055 0001562  91.3454 268.7976 15.49207418  5198
STARLINK-37658          
1 69138U 26110Q   26165.52415150  .00040327  00000+0  73887-3 0  9991
2 69138  97.2829   1.8619 0001154  91.8620 268.2763 15.49207730  5195
STARLINK-37659          
1 69139U 26110R   26165.53184609  .00047936  00000+0  87726-3 0  9995
2 69139  97.2838   1.8521 0001397 100.8430 259.2979 15.49203298  5191
STARLINK-37653          
1 69140U 26110S   26165.53431227  .00035094  00000+0  64385-3 0  9996
2 69140  97.2837   1.8489 0001169  99.3499 260.7884 15.49198580  5198
STARLINK-37654          
1 69141U 26110T   26165.49076928  .00047639  00000+0  87222-3 0  9998
2 69141  97.2829   1.9078 0001601  89.5800 270.5635 15.49191290  5197
STARLINK-37655          
1 69142U 26110U   26165.50003471 -.02611416  00000+0 -59560-1 0  9990
2 69142  97.2838   1.9623 0002217  90.8609  70.1172 15.46605976  5222
STARLINK-37636          
1 69143U 26110V   26165.50003471 -.02958368  00000+0 -91893-1 0  9996
2 69143  97.2838   2.0226 0001744  87.6417 189.4393 15.37263806  5220
STARLINK-37638          
1 69144U 26110W   26165.50003471 -.02988777  00000+0 -92608-1 0  9999
2 69144  97.2838   2.0288 0001554  84.9000 206.9910 15.37383789  5229
STARLINK-37657          
1 69145U 26110X   26165.49097778  .00049471  00000+0  90409-3 0  9995
2 69145  97.2829   1.9070 0001854  95.7176 264.4287 15.49235093  5193
STARLINK-37639          
1 69146U 26110Y   26165.50003471 -.02350368  00000+0 -70931-1 0  9995
2 69146  97.2838   2.0412 0001999  95.1420 224.2752 15.37883321  5272
STARLINK-37661          
1 69147U 26110Z   26165.51241064  .00069234  00000+0  12621-2 0  9997
2 69147  97.2835   1.8780 0001753  98.9812 261.1637 15.49219791  5199
STARLINK-37395          
1 69148U 26111A   26165.50003471 -.02410498  00000+0 -24527-1 0  9999
2 69148  53.1588 165.2666 0000674  87.9972 268.1218 15.67788495  5116
STARLINK-37346          
1 69149U 26111B   26165.50003471 -.02836325  00000+0 -52186-1 0  9993
2 69149  53.1597 165.6723 0001720  90.2305  65.9892 15.52494292  5119
STARLINK-37332          
1 69150U 26111C   26165.50003471  .00069466  00000+0  12476-2 0  9994
2 69150  53.1582 165.9927 0001182  78.1045 280.1613 15.49270779  5112
STARLINK-37297          
1 69151U 26111D   26165.50003471 -.02516500  00000+0 -23993-1 0  9990
2 69151  53.1592 165.2130 0000914  74.6987 307.8840 15.69500970  5111
STARLINK-37317          
1 69152U 26111E   26165.50003471 -.02428348  00000+0 -19593-1 0  9994
2 69152  53.1588 165.1238 0001043  60.5395   5.6210 15.73882505  5112
STARLINK-37374          
1 69153U 26111F   26165.50003471  .00065973  00000+0  11855-2 0  9996
2 69153  53.1589 166.1691 0001059  86.5710 184.0770 15.49279204  5116
STARLINK-37235          
1 69154U 26111G   26165.50003471  .00076278  00000+0  13684-2 0  9999
2 69154  53.1586 166.4117 0001093  81.1063  70.1596 15.49263276  5113
STARLINK-37329          
1 69155U 26111H   26165.50003471 -.02560781  00000+0 -20240-1 0  9996
2 69155  53.1589 165.1274 0001082  60.3727   4.0459 15.73943561  5114
STARLINK-37345          
1 69156U 26111J   26165.50003471 -.02565457  00000+0 -18863-1 0  9990
2 69156  53.1589 165.0974 0001042  63.0410  16.1455 15.75592490  5119
